[{"OBJECT_NAME":"VSP RF C1","OBJECT_ID":"2024-043AQ","EPOCH":"2026-03-09T21:56:05.358624","MEAN_MOTION":15.29409663,"ECCENTRICITY":0.00093965,"INCLINATION":97.5441,"RA_OF_ASC_NODE":205.1792,"ARG_OF_PERICENTER":219.6172,"MEAN_ANOMALY":140.4382,"EPHEMERIS_TYPE":0,"CLASSIFICATION_TYPE":"U","NORAD_CAT_ID":59136,"ELEMENT_SET_NO":999,"REV_AT_EPOCH":11190,"BSTAR":0.00026222052,"MEAN_MOTION_DOT":7.409e-5,"MEAN_MOTION_DDOT":0},{"OBJECT_NAME":"STARLINK-32113","OBJECT_ID":"2024-132E","EPOCH":"2026-03-09T23:03:41.339232","MEAN_MOTION":15.30196438,"ECCENTRICITY":0.00013116,"INCLINATION":53.1608,"RA_OF_ASC_NODE":51.0475,"ARG_OF_PERICENTER":87.6102,"MEAN_ANOMALY":272.5049,"EPHEMERIS_TYPE":0,"CLASSIFICATION_TYPE":"U","NORAD_CAT_ID":60282,"ELEMENT_SET_NO":999,"REV_AT_EPOCH":9160,"BSTAR":3.4432901e-5,"MEAN_MOTION_DOT":6.61e-6,"MEAN_MOTION_DDOT":0}]
